{
  "type": "FeatureCollection",
  "schema_version": "1.0",
  "attribution": "Montgomery County Planning Department",
  "license": "Public data, Montgomery County Planning Department",
  "source_url": "https://montgomeryplans.org/arcgis4/rest/services/Overlays/MCAtlas_Zoning/MapServer/3/query?where=CODE%3D%27FV%27&outFields=OBJECTID%2CCODE%2CNAME%2COVERLAY_NAME%2CBEGINDATE%2CENDDATE&outSR=4326&returnGeometry=true&f=geojson",
  "retrieved_at": "2026-09-19T08:21:20.549486+00:00",
  "limitations": [
    "The Fenton Village (FV) Overlay Zone is a zoning boundary, not a statistical area.",
    "It carries no population, housing or income values and must not be clicked through to counts. Block group values describe whole block groups, not this boundary."
  ],
  "features": [
    {
      "type": "Feature",
      "id": "fenton-village-overlay",
      "geometry": {
        "type": "Polygon",
        "coordinates": [
          [
            [
              -77.02595213728218,
              38.99274474792857
            ],
            [
              -77.02644149171041,
              38.99272903432801
            ],
            [
              -77.02663287567175,
              38.99272285362186
            ],
            [
              -77.02659492199675,
              38.99005864154817
            ],
            [
              -77.02633127944873,
              38.98989951631674
            ],
            [
              -77.02633060936749,
              38.989901010027936
            ],
            [
              -77.02569608463071,
              38.98950909605705
            ],
            [
              -77.02528550346926,
              38.98925549465483
            ],
            [
              -77.02528011764817,
              38.989252168187896
            ],
            [
              -77.02523884745658,
              38.989227541459684
            ],
            [
              -77.02523852783258,
              38.98922784330356
            ],
            [
              -77.02523820820855,
              38.9892281451474
            ],
            [
              -77.02522798601156,
              38.98923780865336
            ],
            [
              -77.02517755167769,
              38.98920530980706
            ],
            [
              -77.02511946519866,
              38.9891678778873
            ],
            [
              -77.02512836851912,
              38.989159463211394
            ],
            [
              -77.02512849082993,
              38.98915934697931
            ],
            [
              -77.02512895815045,
              38.9891589054768
            ],
            [
              -77.02512902392114,
              38.98915884240522
            ],
            [
              -77.02513001394819,
              38.98915790714076
            ],
            [
              -77.02502082100385,
              38.98908306875587
            ],
            [
              -77.02500870111984,
              38.98907608458338
            ],
            [
              -77.02494521200461,
              38.9890426975149
            ],
            [
              -77.02490837725982,
              38.98902622575288
            ],
            [
              -77.02487879356696,
              38.98901298638301
            ],
            [
              -77.02480978405816,
              38.988987123167746
            ],
            [
              -77.0247636653104,
              38.98897294681818
            ],
            [
              -77.02473855979872,
              38.988965223990824
            ],
            [
              -77.02466547633531,
              38.98894741849142
            ],
            [
              -77.02462992637817,
              38.988940915752345
            ],
            [
              -77.02459093998442,
              38.988933789456226
            ],
            [
              -77.02456582801562,
              38.988930677893926
            ],
            [
              -77.02451532704801,
              38.98892441247256
            ],
            [
              -77.02446365087174,
              38.9889209767528
            ],
            [
              -77.0244390449846,
              38.98891934150239
            ],
            [
              -77.0243624920053,
              38.98891859267634
            ],
            [
              -77.02435961915535,
              38.98891888243809
            ],
            [
              -77.02425053971886,
              38.988929896918485
            ],
            [
              -77.02409866987463,
              38.988945225143276
            ],
            [
              -77.02407723973128,
              38.988944707981595
            ],
            [
              -77.024037441719,
              38.988943747785314
            ],
            [
              -77.02393241500431,
              38.9889416334771
            ],
            [
              -77.02391064784631,
              38.9889411956261
            ],
            [
              -77.02386632054976,
              38.98894030295817
            ],
            [
              -77.02387966054621,
              38.98899952288522
            ],
            [
              -77.02388979834255,
              38.98906816424604
            ],
            [
              -77.02389993615813,
              38.98913680470419
            ],
            [
              -77.02390919444493,
              38.98920544534027
            ],
            [
              -77.02391493455272,
              38.98927408669408
            ],
            [
              -77.02392777404542,
              38.989526775039025
            ],
            [
              -77.02391778718815,
              38.989526391530475
            ],
            [
              -77.0236634640297,
              38.989516618011464
            ],
            [
              -77.02357550793066,
              38.98951397565037
            ],
            [
              -77.02348755186675,
              38.98951141970198
            ],
            [
              -77.02343499291044,
              38.989509841197275
            ],
            [
              -77.02342852577705,
              38.989615831232086
            ],
            [
              -77.0234289297794,
              38.98961585547335
            ],
            [
              -77.02342323903494,
              38.9897275979896
            ],
            [
              -77.02342198497742,
              38.98975410578398
            ],
            [
              -77.02341791903265,
              38.98984006558922
            ],
            [
              -77.02342982359143,
              38.98984170269838
            ],
            [
              -77.02344069696974,
              38.989842078864314
            ],
            [
              -77.02344099861713,
              38.98984323996141
            ],
            [
              -77.02344444966144,
              38.989856561503416
            ],
            [
              -77.02344438041024,
              38.98986008462608
            ],
            [
              -77.02344302692899,
              38.98992819142713
            ],
            [
              -77.02344078324087,
              38.99004111782496
            ],
            [
              -77.02344023138815,
              38.99006885149371
            ],
            [
              -77.02344016098665,
              38.99007238812876
            ],
            [
              -77.02344064365776,
              38.990122055665985
            ],
            [
              -77.02343917540253,
              38.99012201362168
            ],
            [
              -77.02345381943593,
              38.99015619321703
            ],
            [
              -77.02347051516044,
              38.9901989680268
            ],
            [
              -77.02339982102983,
              38.990194517725435
            ],
            [
              -77.0233558413696,
              38.990193068087585
            ],
            [
              -77.02331186286507,
              38.99019161753213
            ],
            [
              -77.023223905806,
              38.990188546116585
            ],
            [
              -77.02317165687666,
              38.99018702778709
            ],
            [
              -77.02314160378755,
              38.99018615453639
            ],
            [
              -77.02314382554846,
              38.99022809359148
            ],
            [
              -77.0231458893552,
              38.99026703294566
            ],
            [
              -77.02314603461491,
              38.99027003264875
            ],
            [
              -77.02317381419815,
              38.99084338036554
            ],
            [
              -77.02318179197927,
              38.99100803881782
            ],
            [
              -77.02318448685463,
              38.99104228566736
            ],
            [
              -77.02307985022651,
              38.99104231717125
            ],
            [
              -77.02297521475232,
              38.99104234768048
            ],
            [
              -77.02297782914862,
              38.9910671593593
            ],
            [
              -77.02297880718417,
              38.991086134044345
            ],
            [
              -77.02300835902899,
              38.991656775291624
            ],
            [
              -77.02301164339053,
              38.99170794753355
            ],
            [
              -77.02301337200973,
              38.99173489883016
            ],
            [
              -77.02305924587317,
              38.991733399838886
            ],
            [
              -77.0230592394411,
              38.99180980920221
            ],
            [
              -77.02306488453337,
              38.99195407802737
            ],
            [
              -77.02306567135676,
              38.991974187779185
            ],
            [
              -77.02306833795096,
              38.992042355009
            ],
            [
              -77.02307062276877,
              38.9921007412092
            ],
            [
              -77.02307499339196,
              38.99221246184791
            ],
            [
              -77.0230775424437,
              38.99227762035855
            ],
            [
              -77.02308063156816,
              38.99235656400998
            ],
            [
              -77.02309134082483,
              38.99241209204312
            ],
            [
              -77.02309138264502,
              38.992412909078574
            ],
            [
              -77.02312091091058,
              38.992988227202275
            ],
            [
              -77.02312217713315,
              38.99301290130893
            ],
            [
              -77.02312199956727,
              38.99301707394162
            ],
            [
              -77.0231159291485,
              38.993159900128504
            ],
            [
              -77.02311662100342,
              38.99317184396197
            ],
            [
              -77.02312742725519,
              38.99335855474906
            ],
            [
              -77.02313892427134,
              38.99355720845974
            ],
            [
              -77.023162677705,
              38.99396764965374
            ],
            [
              -77.02316301838249,
              38.99397520205855
            ],
            [
              -77.02316544844224,
              38.99402897871044
            ],
            [
              -77.02298232243464,
              38.99403559712393
            ],
            [
              -77.02298223213904,
              38.994095624160906
            ],
            [
              -77.02299311705332,
              38.99424417168554
            ],
            [
              -77.02301004510797,
              38.994475183545944
            ],
            [
              -77.02301181560219,
              38.994499341377335
            ],
            [
              -77.02302301137405,
              38.994652121776646
            ],
            [
              -77.02303716731986,
              38.99484528712801
            ],
            [
              -77.02302654652668,
              38.99503585218006
            ],
            [
              -77.02302560770961,
              38.9950527039949
            ],
            [
              -77.02315380846505,
              38.99521280295201
            ],
            [
              -77.0232715885737,
              38.995359886996354
            ],
            [
              -77.02330116619393,
              38.99539682281179
            ],
            [
              -77.02331459577432,
              38.99541359429414
            ],
            [
              -77.02328998466888,
              38.995427490733135
            ],
            [
              -77.02323500782818,
              38.99545853129186
            ],
            [
              -77.02318003093957,
              38.99548957182453
            ],
            [
              -77.02313555103132,
              38.99551468736797
            ],
            [
              -77.0233475193216,
              38.99571278137411
            ],
            [
              -77.02346264529318,
              38.99582037111868
            ],
            [
              -77.02346265683448,
              38.995820363909814
            ],
            [
              -77.02360354347032,
              38.99573091393155
            ],
            [
              -77.02360355616567,
              38.995730905821596
            ],
            [
              -77.02360357809421,
              38.99573089230488
            ],
            [
              -77.02381624670167,
              38.99560437596021
            ],
            [
              -77.02381625016413,
              38.99560437415785
            ],
            [
              -77.02383071969767,
              38.99559611970538
            ],
            [
              -77.02383072662268,
              38.9955961161007
            ],
            [
              -77.02383073123922,
              38.99559611339729
            ],
            [
              -77.02383073931827,
              38.99559610889153
            ],
            [
              -77.0238836699127,
              38.99556685209393
            ],
            [
              -77.0239755438224,
              38.995516069423694
            ],
            [
              -77.02418605938,
              38.99539970777937
            ],
            [
              -77.02392161013212,
              38.995545244493776
            ],
            [
              -77.02411084467377,
              38.995441068215825
            ],
            [
              -77.02418500780131,
              38.995396444328065
            ],
            [
              -77.02425019145502,
              38.99535640292158
            ],
            [
              -77.02432452329167,
              38.99531617761086
            ],
            [
              -77.02436509045313,
              38.99529422520636
            ],
            [
              -77.02449918500392,
              38.995221658711934
            ],
            [
              -77.02451386672982,
              38.995223353694634
            ],
            [
              -77.02452862348527,
              38.995222538703324
            ],
            [
              -77.0245430292671,
              38.99521923726546
            ],
            [
              -77.02455666820418,
              38.9952135446881
            ],
            [
              -77.02455702137229,
              38.99521335273943
            ],
            [
              -77.02470036794901,
              38.99513466120046
            ],
            [
              -77.02470199665945,
              38.995137729948496
            ],
            [
              -77.02501409509065,
              38.99496715561053
            ],
            [
              -77.0250038289813,
              38.99494294377717
            ],
            [
              -77.02488564024169,
              38.994698419900445
            ],
            [
              -77.02485022507035,
              38.994626621300974
            ],
            [
              -77.02534692708623,
              38.99437966583376
            ],
            [
              -77.02541106972868,
              38.99435435600123
            ],
            [
              -77.0257610118303,
              38.99418427767495
            ],
            [
              -77.02576447412285,
              38.99419181046712
            ],
            [
              -77.0257778011069,
              38.99419842495208
            ],
            [
              -77.02609107520865,
              38.99404762043887
            ],
            [
              -77.02618825817939,
              38.99400084167565
            ],
            [
              -77.02611094684207,
              38.99364985635717
            ],
            [
              -77.02590995266283,
              38.993525503247504
            ],
            [
              -77.0258985078141,
              38.9932026510632
            ],
            [
              -77.02589368057258,
              38.99306653284801
            ],
            [
              -77.02588943845387,
              38.99301261521396
            ],
            [
              -77.02588332925697,
              38.992934964991676
            ],
            [
              -77.02589310857132,
              38.99293465204444
            ],
            [
              -77.02589238559642,
              38.99292093542004
            ],
            [
              -77.02588317763895,
              38.99274642341962
            ],
            [
              -77.02595213728218,
              38.99274474792857
            ]
          ]
        ]
      },
      "properties": {
        "name": "Fenton Village (FV) Overlay Zone",
        "kind": "zoning_overlay",
        "legal_definition": "Montgomery County Zoning Ordinance Section 4.9.8",
        "carries_statistics": false
      }
    }
  ]
}
