{
  "type": "FeatureCollection",
  "features": [
    {
      "type": "Feature",
      "id": 130128,
      "geometry": {
        "type": "Polygon",
        "coordinates": [
          [
            [-77.032340999696274, 38.99362099965316],
            [-77.031852999799654, 38.993120999658515],
            [-77.031784000202663, 38.993041000309034],
            [-77.030637999631793, 38.99178700020606],
            [-77.028944999613046, 38.98993599972178],
            [-77.028717000007404, 38.989703999925766],
            [-77.028275000141534, 38.989185999851877],
            [-77.027577000182632, 38.98839599984818],
            [-77.026879000223701, 38.987636000167413],
            [-77.026705000146421, 38.987484999837989],
            [-77.026776000291534, 38.987836999911963],
            [-77.026781000314415, 38.988753000326611],
            [-77.026784999614065, 38.988874999690111],
            [-77.026758999674783, 38.989315000294859],
            [-77.026762000047839, 38.989664000076694],
            [-77.02676700007072, 38.990234999830015],
            [-77.026786000337296, 38.990857999942008],
            [-77.026755000375132, 38.991542000305657],
            [-77.026765000420895, 38.992086000175036],
            [-77.026768999720545, 38.992473000302574],
            [-77.026791000360149, 38.992959999662453],
            [-77.026806000428778, 38.993303999898821],
            [-77.026808000078589, 38.993403999921796],
            [-77.026890000094355, 38.994266000293237],
            [-77.026921999881409, 38.994426000321383],
            [-77.026988999828561, 38.99456699983687],
            [-77.027089000285983, 38.994706999983983],
            [-77.027306999845877, 38.995067999868489],
            [-77.0277599995824, 38.995533000311063],
            [-77.028142999897057, 38.995873000134672],
            [-77.028250000027185, 38.995973000018353],
            [-77.028723999680111, 38.995681000213295],
            [-77.029173999941889, 38.995422000181257],
            [-77.029388000202133, 38.995291999921086],
            [-77.029768999968653, 38.995055999708519],
            [-77.030211999659443, 38.994788999811895],
            [-77.031396999690074, 38.994095999866971],
            [-77.031447999743705, 38.994068000036883],
            [-77.031566999569378, 38.993996000123659],
            [-77.031675000422723, 38.993945000053529],
            [-77.032340999696274, 38.99362099965316]
          ]
        ]
      },
      "properties": {
        "MTFCC": "G5030",
        "OID": "2087015682039576",
        "GEOID": "240317025011",
        "STATE": "24",
        "COUNTY": "031",
        "TRACT": "702501",
        "BLKGRP": "1",
        "BASENAME": "1",
        "NAME": "Block Group 1",
        "LSADC": "BG",
        "FUNCSTAT": "S",
        "AREALAND": 228670,
        "AREAWATER": 0,
        "UR": "U",
        "CENTLAT": "+38.9924167",
        "CENTLON": "-077.0287143",
        "INTPTLAT": "+38.9924167",
        "INTPTLON": "-077.0287143",
        "HU100": 1924,
        "POP100": 2866,
        "OBJECTID": 130128
      }
    },
    {
      "type": "Feature",
      "id": 160371,
      "geometry": {
        "type": "Polygon",
        "coordinates": [
          [
            [-77.026988999828561, 38.99456699983687],
            [-77.026921999881409, 38.994426000321383],
            [-77.026890000094355, 38.994266000293237],
            [-77.026808000078589, 38.993403999921796],
            [-77.026806000428778, 38.993303999898821],
            [-77.026791000360149, 38.992959999662453],
            [-77.026768999720545, 38.992473000302574],
            [-77.026765000420895, 38.992086000175036],
            [-77.026755000375132, 38.991542000305657],
            [-77.026786000337296, 38.990857999942008],
            [-77.02676700007072, 38.990234999830015],
            [-77.026762000047839, 38.989664000076694],
            [-77.026758999674783, 38.989315000294859],
            [-77.026784999614065, 38.988874999690111],
            [-77.026781000314415, 38.988753000326611],
            [-77.026776000291534, 38.987836999911963],
            [-77.026705000146421, 38.987484999837989],
            [-77.026696999750513, 38.987332999994919],
            [-77.026689000252901, 38.986562999670639],
            [-77.026649000069938, 38.985752000171509],
            [-77.026611000435096, 38.984675999964388],
            [-77.026596000366482, 38.984511999822928],
            [-77.025732999652817, 38.983832999652606],
            [-77.024260999567005, 38.982718999931251],
            [-77.023170000146024, 38.981856999987173],
            [-77.023146999681487, 38.981838999878079],
            [-77.022355999836151, 38.981329999981384],
            [-77.02233800029282, 38.981380000089409],
            [-77.020389000181027, 38.979872999679202],
            [-77.021467999906434, 38.981823999667327],
            [-77.022041000191891, 38.982818000291473],
            [-77.022918000250939, 38.984286999934675],
            [-77.023030000403949, 38.984459000040893],
            [-77.022816999968597, 38.984795000293225],
            [-77.02293499996938, 38.985034000273096],
            [-77.022975000152343, 38.985190999765308],
            [-77.02296799958134, 38.985365000303418],
            [-77.022945999840047, 38.985550000177717],
            [-77.022924000098726, 38.985740999740749],
            [-77.022950000037994, 38.985929999667498],
            [-77.023052999970162, 38.986204000205909],
            [-77.023293000169659, 38.986843999829141],
            [-77.023426000239056, 38.987232999773113],
            [-77.023584000422815, 38.987790999708146],
            [-77.023611000186989, 38.98787000022196],
            [-77.023779000416468, 38.988410000188352],
            [-77.023888000196422, 38.988824000119145],
            [-77.023931999679036, 38.989196999747286],
            [-77.023925000006344, 38.989517000018218],
            [-77.023955999968479, 38.990202999773715],
            [-77.024036000334419, 38.991614999751988],
            [-77.024084999839914, 38.993041000309034],
            [-77.024104999931396, 38.993669999658096],
            [-77.024115999802049, 38.993987999663304],
            [-77.024139000266572, 38.994414999842313],
            [-77.024161999832799, 38.994621000215659],
            [-77.024222999932178, 38.9948949999254],
            [-77.024421000298901, 38.995398999755203],
            [-77.025511999719882, 38.994800000232821],
            [-77.025870999745081, 38.994628000119569],
            [-77.025955000308983, 38.994608999979938],
            [-77.026820999599082, 38.994572000171061],
            [-77.026988999828561, 38.99456699983687]
          ]
        ]
      },
      "properties": {
        "MTFCC": "G5030",
        "OID": "2087015682039759",
        "GEOID": "240317025021",
        "STATE": "24",
        "COUNTY": "031",
        "TRACT": "702502",
        "BLKGRP": "1",
        "BASENAME": "1",
        "NAME": "Block Group 1",
        "LSADC": "BG",
        "FUNCSTAT": "S",
        "AREALAND": 383501,
        "AREAWATER": 0,
        "UR": "U",
        "CENTLAT": "+38.9879974",
        "CENTLON": "-077.0247984",
        "INTPTLAT": "+38.9879974",
        "INTPTLON": "-077.0247984",
        "HU100": 1316,
        "POP100": 1731,
        "OBJECTID": 160371
      }
    }
  ]
}
