{"type":"FeatureCollection","crs":{"type":"name","properties":{"name":"EPSG:4326"}},"features":[{"type":"Feature","id":6,"geometry":{"type":"Polygon","coordinates":[[[-77.025952137282175,38.992744747928569],[-77.026441491710415,38.992729034328008],[-77.026632875671751,38.992722853621864],[-77.026594921996747,38.990058641548167],[-77.026331279448726,38.98989951631674],[-77.026330609367491,38.989901010027936],[-77.025696084630709,38.989509096057049],[-77.025285503469263,38.989255494654827],[-77.025280117648165,38.989252168187896],[-77.025238847456578,38.989227541459684],[-77.025238527832585,38.98922784330356],[-77.025238208208549,38.989228145147401],[-77.025227986011558,38.989237808653357],[-77.025177551677686,38.989205309807062],[-77.025119465198657,38.989167877887297],[-77.02512836851912,38.989159463211394],[-77.025128490829928,38.989159346979307],[-77.025128958150447,38.989158905476799],[-77.025129023921139,38.989158842405217],[-77.025130013948186,38.989157907140758],[-77.025020821003849,38.989083068755868],[-77.025008701119845,38.989076084583381],[-77.02494521200461,38.989042697514897],[-77.02490837725982,38.98902622575288],[-77.024878793566955,38.98901298638301],[-77.024809784058164,38.988987123167746],[-77.024763665310402,38.98897294681818],[-77.02473855979872,38.988965223990824],[-77.024665476335315,38.988947418491421],[-77.024629926378168,38.988940915752345],[-77.024590939984421,38.988933789456226],[-77.024565828015625,38.988930677893926],[-77.024515327048007,38.988924412472556],[-77.024463650871738,38.988920976752802],[-77.024439044984604,38.988919341502388],[-77.024362492005295,38.988918592676342],[-77.024359619155348,38.988918882438092],[-77.024250539718864,38.988929896918485],[-77.024098669874633,38.988945225143276],[-77.024077239731284,38.988944707981595],[-77.024037441719003,38.988943747785314],[-77.02393241500431,38.988941633477097],[-77.023910647846307,38.988941195626097],[-77.023866320549757,38.98894030295817],[-77.023879660546214,38.988999522885223],[-77.023889798342552,38.989068164246042],[-77.023899936158131,38.989136804704188],[-77.023909194444926,38.989205445340268],[-77.023914934552721,38.989274086694081],[-77.023927774045418,38.989526775039025],[-77.023917787188154,38.989526391530475],[-77.023663464029696,38.989516618011464],[-77.023575507930659,38.989513975650368],[-77.023487551866751,38.989511419701977],[-77.023434992910438,38.989509841197275],[-77.023428525777049,38.989615831232086],[-77.023428929779399,38.989615855473353],[-77.02342323903494,38.989727597989599],[-77.023421984977418,38.98975410578398],[-77.023417919032653,38.98984006558922],[-77.023429823591428,38.989841702698378],[-77.023440696969743,38.989842078864314],[-77.023440998617133,38.989843239961409],[-77.02344444966144,38.989856561503416],[-77.02344438041024,38.989860084626081],[-77.023443026928987,38.989928191427133],[-77.023440783240872,38.990041117824958],[-77.02344023138815,38.99006885149371],[-77.023440160986652,38.990072388128759],[-77.023440643657764,38.990122055665985],[-77.02343917540253,38.990122013621679],[-77.023453819435929,38.990156193217032],[-77.02347051516044,38.990198968026803],[-77.023399821029827,38.990194517725435],[-77.023355841369593,38.990193068087585],[-77.023311862865071,38.990191617532133],[-77.023223905806006,38.990188546116585],[-77.023171656876656,38.990187027787087],[-77.02314160378755,38.990186154536389],[-77.023143825548459,38.990228093591483],[-77.023145889355206,38.99026703294566],[-77.023146034614911,38.990270032648752],[-77.023173814198145,38.99084338036554],[-77.023181791979269,38.991008038817817],[-77.023184486854632,38.991042285667362],[-77.023079850226509,38.991042317171249],[-77.022975214752321,38.991042347680477],[-77.022977829148616,38.991067159359297],[-77.022978807184174,38.991086134044345],[-77.023008359028992,38.991656775291624],[-77.023011643390532,38.991707947533548],[-77.023013372009729,38.99173489883016],[-77.023059245873171,38.991733399838886],[-77.023059239441096,38.991809809202209],[-77.023064884533369,38.991954078027369],[-77.023065671356761,38.991974187779185],[-77.02306833795096,38.992042355008998],[-77.02307062276877,38.9921007412092],[-77.023074993391958,38.992212461847913],[-77.023077542443701,38.99227762035855],[-77.023080631568163,38.992356564009981],[-77.023091340824834,38.992412092043118],[-77.023091382645021,38.992412909078574],[-77.023120910910578,38.992988227202275],[-77.023122177133146,38.99301290130893],[-77.023121999567266,38.993017073941623],[-77.023115929148503,38.993159900128504],[-77.023116621003425,38.993171843961967],[-77.02312742725519,38.993358554749058],[-77.023138924271336,38.993557208459741],[-77.023162677705002,38.99396764965374],[-77.02316301838249,38.99397520205855],[-77.023165448442242,38.994028978710439],[-77.022982322434643,38.994035597123933],[-77.022982232139043,38.994095624160906],[-77.022993117053318,38.994244171685537],[-77.023010045107966,38.994475183545944],[-77.023011815602189,38.994499341377335],[-77.02302301137405,38.994652121776646],[-77.023037167319856,38.994845287128008],[-77.02302654652668,38.99503585218006],[-77.023025607709613,38.995052703994901],[-77.023153808465054,38.995212802952011],[-77.023271588573706,38.995359886996354],[-77.023301166193932,38.995396822811792],[-77.023314595774323,38.995413594294142],[-77.023289984668878,38.995427490733135],[-77.023235007828177,38.99545853129186],[-77.023180030939571,38.995489571824528],[-77.023135551031316,38.995514687367972],[-77.023347519321604,38.99571278137411],[-77.023462645293179,38.995820371118683],[-77.023462656834482,38.995820363909814],[-77.023603543470315,38.995730913931553],[-77.023603556165668,38.995730905821596],[-77.02360357809421,38.995730892304877],[-77.023816246701671,38.995604375960212],[-77.023816250164131,38.99560437415785],[-77.023830719697671,38.995596119705382],[-77.023830726622677,38.9955961161007],[-77.023830731239215,38.995596113397291],[-77.023830739318271,38.995596108891533],[-77.023883669912706,38.99556685209393],[-77.023975543822402,38.995516069423694],[-77.02418605938,38.99539970777937],[-77.02392161013212,38.995545244493776],[-77.024110844673771,38.995441068215825],[-77.024185007801307,38.995396444328065],[-77.024250191455025,38.99535640292158],[-77.024324523291668,38.99531617761086],[-77.024365090453131,38.995294225206358],[-77.024499185003918,38.995221658711934],[-77.024513866729819,38.995223353694634],[-77.024528623485267,38.995222538703324],[-77.024543029267093,38.995219237265459],[-77.024556668204184,38.995213544688099],[-77.024557021372289,38.995213352739427],[-77.024700367949009,38.99513466120046],[-77.024701996659445,38.995137729948496],[-77.025014095090654,38.994967155610532],[-77.025003828981298,38.994942943777168],[-77.024885640241692,38.994698419900445],[-77.024850225070352,38.994626621300974],[-77.025346927086233,38.994379665833762],[-77.025411069728676,38.994354356001232],[-77.025761011830298,38.994184277674947],[-77.025764474122852,38.994191810467122],[-77.025777801106898,38.994198424952081],[-77.026091075208655,38.99404762043887],[-77.026188258179388,38.99400084167565],[-77.026110946842067,38.993649856357173],[-77.025909952662829,38.993525503247504],[-77.025898507814105,38.9932026510632],[-77.02589368057258,38.993066532848012],[-77.025889438453873,38.993012615213956],[-77.02588332925697,38.992934964991676],[-77.025893108571324,38.99293465204444],[-77.025892385596421,38.992920935420038],[-77.025883177638946,38.992746423419618],[-77.025952137282175,38.992744747928569]]]},"properties":{"OBJECTID":6,"CODE":"FV","NAME":"Fenton Village Overlay","OVERLAY_NAME":null,"BEGINDATE":null,"ENDDATE":null}}]}